{
  "type": "FeatureCollection",
  "features": [
    {
      "type": "Feature",
      "properties": {
        "OBJECT_NAME": "GPS BIII-1  (PRN 04)",
        "OBJECT_ID": "2018-109A",
        "EPOCH": "2025-11-30T01:54:00.521280",
        "MEAN_MOTION": 2.00553137,
        "ECCENTRICITY": 0.0037185,
        "INCLINATION": 55.5593,
        "RA_OF_ASC_NODE": 100.0473,
        "ARG_OF_PERICENTER": 194.4195,
        "MEAN_ANOMALY": 167.895,
        "EPHEMERIS_TYPE": 0,
        "CLASSIFICATION_TYPE": "U",
        "NORAD_CAT_ID": 43873,
        "ELEMENT_SET_NO": 999,
        "REV_AT_EPOCH": 5108,
        "BSTAR": 0,
        "MEAN_MOTION_DOT": 3.9e-07,
        "MEAN_MOTION_DDOT": 0,
        "norad_id": 43873,
        "name": "GPS BIII-1  (PRN 04)",
        "group": "gps-ops",
        "longitude_deg": NaN,
        "latitude_deg": NaN,
        "alt_km": NaN,
        "orbit_class": "HEO",
        "timestamp": "2025-11-30T08:43:09.304874+00:00"
      },
      "geometry": {
        "type": "Point",
        "coordinates": [
          NaN,
          NaN
        ]
      }
    },
    {
      "type": "Feature",
      "properties": {
        "OBJECT_NAME": "GPS BIII-2  (PRN 18)",
        "OBJECT_ID": "2019-056A",
        "EPOCH": "2025-11-29T04:28:06.451392",
        "MEAN_MOTION": 2.00565646,
        "ECCENTRICITY": 0.00577896,
        "INCLINATION": 55.7261,
        "RA_OF_ASC_NODE": 339.0921,
        "ARG_OF_PERICENTER": 198.3088,
        "MEAN_ANOMALY": 135.6589,
        "EPHEMERIS_TYPE": 0,
        "CLASSIFICATION_TYPE": "U",
        "NORAD_CAT_ID": 44506,
        "ELEMENT_SET_NO": 999,
        "REV_AT_EPOCH": 4605,
        "BSTAR": 0,
        "MEAN_MOTION_DOT": -5e-07,
        "MEAN_MOTION_DDOT": 0,
        "norad_id": 44506,
        "name": "GPS BIII-2  (PRN 18)",
        "group": "gps-ops",
        "longitude_deg": NaN,
        "latitude_deg": NaN,
        "alt_km": NaN,
        "orbit_class": "HEO",
        "timestamp": "2025-11-30T08:43:09.305483+00:00"
      },
      "geometry": {
        "type": "Point",
        "coordinates": [
          NaN,
          NaN
        ]
      }
    },
    {
      "type": "Feature",
      "properties": {
        "OBJECT_NAME": "GPS BIII-3  (PRN 23)",
        "OBJECT_ID": "2020-041A",
        "EPOCH": "2025-11-30T00:45:17.082144",
        "MEAN_MOTION": 2.00561909,
        "ECCENTRICITY": 0.0060212,
        "INCLINATION": 56.538,
        "RA_OF_ASC_NODE": 36.6817,
        "ARG_OF_PERICENTER": 202.8412,
        "MEAN_ANOMALY": 325.733,
        "EPHEMERIS_TYPE": 0,
        "CLASSIFICATION_TYPE": "U",
        "NORAD_CAT_ID": 45854,
        "ELEMENT_SET_NO": 999,
        "REV_AT_EPOCH": 4004,
        "BSTAR": 0,
        "MEAN_MOTION_DOT": -6.4e-07,
        "MEAN_MOTION_DDOT": 0,
        "norad_id": 45854,
        "name": "GPS BIII-3  (PRN 23)",
        "group": "gps-ops",
        "longitude_deg": NaN,
        "latitude_deg": NaN,
        "alt_km": NaN,
        "orbit_class": "HEO",
        "timestamp": "2025-11-30T08:43:09.308137+00:00"
      },
      "geometry": {
        "type": "Point",
        "coordinates": [
          NaN,
          NaN
        ]
      }
    },
    {
      "type": "Feature",
      "properties": {
        "OBJECT_NAME": "GPS BIII-4  (PRN 14)",
        "OBJECT_ID": "2020-078A",
        "EPOCH": "2025-11-12T03:01:29.190720",
        "MEAN_MOTION": 2.00567032,
        "ECCENTRICITY": 0.0063911,
        "INCLINATION": 54.0223,
        "RA_OF_ASC_NODE": 219.5836,
        "ARG_OF_PERICENTER": 203.4985,
        "MEAN_ANOMALY": 326.7754,
        "EPHEMERIS_TYPE": 0,
        "CLASSIFICATION_TYPE": "U",
        "NORAD_CAT_ID": 46826,
        "ELEMENT_SET_NO": 999,
        "REV_AT_EPOCH": 3715,
        "BSTAR": 0,
        "MEAN_MOTION_DOT": -3.4e-07,
        "MEAN_MOTION_DDOT": 0,
        "norad_id": 46826,
        "name": "GPS BIII-4  (PRN 14)",
        "group": "gps-ops",
        "longitude_deg": NaN,
        "latitude_deg": NaN,
        "alt_km": NaN,
        "orbit_class": "HEO",
        "timestamp": "2025-11-30T08:43:09.309630+00:00"
      },
      "geometry": {
        "type": "Point",
        "coordinates": [
          NaN,
          NaN
        ]
      }
    },
    {
      "type": "Feature",
      "properties": {
        "OBJECT_NAME": "GPS BIII-5  (PRN 11)",
        "OBJECT_ID": "2021-054A",
        "EPOCH": "2025-11-29T20:53:56.447808",
        "MEAN_MOTION": 2.00554013,
        "ECCENTRICITY": 0.0024628,
        "INCLINATION": 55.2609,
        "RA_OF_ASC_NODE": 340.4719,
        "ARG_OF_PERICENTER": 233.0444,
        "MEAN_ANOMALY": 336.1913,
        "EPHEMERIS_TYPE": 0,
        "CLASSIFICATION_TYPE": "U",
        "NORAD_CAT_ID": 48859,
        "ELEMENT_SET_NO": 999,
        "REV_AT_EPOCH": 3275,
        "BSTAR": 0,
        "MEAN_MOTION_DOT": -5.3e-07,
        "MEAN_MOTION_DDOT": 0,
        "norad_id": 48859,
        "name": "GPS BIII-5  (PRN 11)",
        "group": "gps-ops",
        "longitude_deg": NaN,
        "latitude_deg": NaN,
        "alt_km": NaN,
        "orbit_class": "HEO",
        "timestamp": "2025-11-30T08:43:09.314369+00:00"
      },
      "geometry": {
        "type": "Point",
        "coordinates": [
          NaN,
          NaN
        ]
      }
    },
    {
      "type": "Feature",
      "properties": {
        "OBJECT_NAME": "GPS BIII-6  (PRN 28)",
        "OBJECT_ID": "2023-009A",
        "EPOCH": "2025-11-30T00:32:38.314752",
        "MEAN_MOTION": 2.00556632,
        "ECCENTRICITY": 0.0003483,
        "INCLINATION": 55.1054,
        "RA_OF_ASC_NODE": 156.3454,
        "ARG_OF_PERICENTER": 359.6796,
        "MEAN_ANOMALY": 1.4566,
        "EPHEMERIS_TYPE": 0,
        "CLASSIFICATION_TYPE": "U",
        "NORAD_CAT_ID": 55268,
        "ELEMENT_SET_NO": 999,
        "REV_AT_EPOCH": 2125,
        "BSTAR": 0,
        "MEAN_MOTION_DOT": 1.29e-06,
        "MEAN_MOTION_DDOT": 0,
        "norad_id": 55268,
        "name": "GPS BIII-6  (PRN 28)",
        "group": "gps-ops",
        "longitude_deg": NaN,
        "latitude_deg": NaN,
        "alt_km": NaN,
        "orbit_class": "HEO",
        "timestamp": "2025-11-30T08:43:09.330893+00:00"
      },
      "geometry": {
        "type": "Point",
        "coordinates": [
          NaN,
          NaN
        ]
      }
    },
    {
      "type": "Feature",
      "properties": {
        "OBJECT_NAME": "GPS BIII-7  (PRN 01)",
        "OBJECT_ID": "2024-242A",
        "EPOCH": "2025-11-26T22:16:50.684160",
        "MEAN_MOTION": 2.00567458,
        "ECCENTRICITY": 0.0011414,
        "INCLINATION": 54.9285,
        "RA_OF_ASC_NODE": 342.382,
        "ARG_OF_PERICENTER": 343.1444,
        "MEAN_ANOMALY": 20.6436,
        "EPHEMERIS_TYPE": 0,
        "CLASSIFICATION_TYPE": "U",
        "NORAD_CAT_ID": 62339,
        "ELEMENT_SET_NO": 999,
        "REV_AT_EPOCH": 720,
        "BSTAR": 0,
        "MEAN_MOTION_DOT": -5.6e-07,
        "MEAN_MOTION_DDOT": 0,
        "norad_id": 62339,
        "name": "GPS BIII-7  (PRN 01)",
        "group": "gps-ops",
        "longitude_deg": NaN,
        "latitude_deg": NaN,
        "alt_km": NaN,
        "orbit_class": "HEO",
        "timestamp": "2025-11-30T08:43:09.364386+00:00"
      },
      "geometry": {
        "type": "Point",
        "coordinates": [
          NaN,
          NaN
        ]
      }
    },
    {
      "type": "Feature",
      "properties": {
        "OBJECT_NAME": "GPS BIII-8  (PRN 21)",
        "OBJECT_ID": "2025-116A",
        "EPOCH": "2025-11-27T15:37:05.200896",
        "MEAN_MOTION": 2.0055919,
        "ECCENTRICITY": 0.00048631,
        "INCLINATION": 55.0944,
        "RA_OF_ASC_NODE": 39.2516,
        "ARG_OF_PERICENTER": 304.421,
        "MEAN_ANOMALY": 50.9436,
        "EPHEMERIS_TYPE": 0,
        "CLASSIFICATION_TYPE": "U",
        "NORAD_CAT_ID": 64202,
        "ELEMENT_SET_NO": 999,
        "REV_AT_EPOCH": 382,
        "BSTAR": 0,
        "MEAN_MOTION_DOT": -6e-07,
        "MEAN_MOTION_DDOT": 0,
        "norad_id": 64202,
        "name": "GPS BIII-8  (PRN 21)",
        "group": "gps-ops",
        "longitude_deg": NaN,
        "latitude_deg": NaN,
        "alt_km": NaN,
        "orbit_class": "HEO",
        "timestamp": "2025-11-30T08:43:09.376379+00:00"
      },
      "geometry": {
        "type": "Point",
        "coordinates": [
          NaN,
          NaN
        ]
      }
    }
  ]
}